MULTIPOLYGON Z (((79.99981887152065 6.900156672228473 3.048, 79.99981887152065 6.900156672228473 0.0, 79.99981887152065 6.900065971130866 0.0, 79.99981887152065 6.900156672228473 3.048)), ((79.99981887152065 6.900065971130866 3.048, 79.99981887152065 6.900156672228473 3.048, 79.99981887152065 6.900065971130866 0.0, 79.99981887152065 6.900065971130866 3.048)), ((79.99981887152065 6.900065971130866 3.048, 79.99981887152065 6.900065971130866 0.0, 79.99992833170664 6.900065971130866 0.0, 79.99981887152065 6.900065971130866 3.048)), ((79.99992833170664 6.900065971130866 3.048, 79.99981887152065 6.900065971130866 3.048, 79.99992833170664 6.900065971130866 0.0, 79.99992833170664 6.900065971130866 3.048)), ((79.99992833170664 6.900065971130866 3.048, 79.99992833170664 6.900065971130866 0.0, 79.99992833170664 6.900156672228473 3.048, 79.99992833170664 6.900065971130866 3.048)), ((79.99992833170664 6.900156672228473 3.048, 79.99992833170664 6.900065971130866 0.0, 79.99992833170664 6.900156672228473 0.0, 79.99992833170664 6.900156672228473 3.048)), ((79.99992833170664 6.900156672228473 3.048, 79.99992833170664 6.900156672228473 0.0, 79.99981887152065 6.900156672228473 0.0, 79.99992833170664 6.900156672228473 3.048)), ((79.99981887152065 6.900156672228473 3.048, 79.99992833170664 6.900156672228473 3.048, 79.99981887152065 6.900156672228473 0.0, 79.99981887152065 6.900156672228473 3.048)), ((79.99981887152065 6.900065971130866 0.0, 79.99981887152065 6.900156672228473 0.0, 79.99992833170664 6.900156672228473 0.0, 79.99981887152065 6.900065971130866 0.0)), ((79.99981887152065 6.900065971130866 0.0, 79.99992833170664 6.900156672228473 0.0, 79.99992833170664 6.900065971130866 0.0, 79.99981887152065 6.900065971130866 0.0)), ((79.99992833170664 6.900156672228473 3.048, 79.99981887152065 6.900156672228473 3.048, 79.99981887152065 6.900065971130866 3.048, 79.99992833170664 6.900156672228473 3.048)), ((79.99992833170664 6.900065971130866 3.048, 79.99992833170664 6.900156672228473 3.048, 79.99981887152065 6.900065971130866 3.048, 79.99992833170664 6.900065971130866 3.048)))